start=new Date('2022-05-20T00:00:00.000Z').valueOf();
sats=[{"APOAPSIS":"548.428","LAUNCH_DATE":"2021-04-29","MEAN_MOTION_DDOT":"0.0000000000000","COUNTRY_CODE":"US","OBJECT_TYPE":"PAYLOAD","TIME_SYSTEM":"UTC","CENTER_NAME":"EARTH","RCS_SIZE":"LARGE","ELEMENT_SET_NO":"999","EPOCH":"2022-05-19T11:49:19.452000","INCLINATION":"53.0575","FILE":"3453256","MEAN_MOTION":"15.06388239","SEMIMAJOR_AXIS":"6925.385","MEAN_ELEMENT_THEORY":"SGP4","ECCENTRICITY":"0.00017020","GP_ID":"203952349","TLE_LINE1":"1 48318U 21036AU  22139.49258625  .00000229  00000-0  34308-4 0  9999","TLE_LINE2":"2 48318  53.0575 222.4643 0001702  67.3431 292.7738 15.06388239 59139","NORAD_CAT_ID":"48318","SITE":"AFETR","OBJECT_ID":"2021-036AU","EPHEMERIS_TYPE":"0","PERIOD":"95.593","MEAN_ANOMALY":"292.7738","MEAN_MOTION_DOT":"0.00000229","BSTAR":"0.00003430800000","ARG_OF_PERICENTER":"67.3431","REV_AT_EPOCH":"5913","OBJECT_NAME":"STARLINK-2509","RA_OF_ASC_NODE":"222.4643","DECAY_DATE":null,"CLASSIFICATION_TYPE":"U","PERIAPSIS":"546.071","REF_FRAME":"TEME"},{"MEAN_ELEMENT_THEORY":"SGP4","SEMIMAJOR_AXIS":"6925.357","MEAN_MOTION":"15.06397311","FILE":"3453256","EPOCH":"2022-05-19T11:44:00.916800","INCLINATION":"53.0563","GP_ID":"203952852","ECCENTRICITY":"0.00017970","CENTER_NAME":"EARTH","TIME_SYSTEM":"UTC","ELEMENT_SET_NO":"999","RCS_SIZE":"LARGE","MEAN_MOTION_DDOT":"0.0000000000000","OBJECT_TYPE":"PAYLOAD","COUNTRY_CODE":"US","APOAPSIS":"548.466","LAUNCH_DATE":"2021-04-29","DECAY_DATE":null,"RA_OF_ASC_NODE":"222.4729","REF_FRAME":"TEME","PERIAPSIS":"545.977","CLASSIFICATION_TYPE":"U","BSTAR":"0.00023082000000","ARG_OF_PERICENTER":"65.8334","OBJECT_NAME":"STARLINK-2512","REV_AT_EPOCH":"5913","MEAN_ANOMALY":"294.2843","PERIOD":"95.592","MEAN_MOTION_DOT":"0.00003158","OBJECT_ID":"2021-036AV","NORAD_CAT_ID":"48319","SITE":"AFETR","TLE_LINE1":"1 48319U 21036AV  22139.48889950  .00003158  00000-0  23082-3 0  9990","TLE_LINE2":"2 48319  53.0563 222.4729 0001797  65.8334 294.2843 15.06397311 59136","EPHEMERIS_TYPE":"0"},{"COUNTRY_CODE":"US","OBJECT_TYPE":"PAYLOAD","MEAN_MOTION_DDOT":"0.0000000000000","LAUNCH_DATE":"2021-04-29","APOAPSIS":"548.216","GP_ID":"203993464","ECCENTRICITY":"0.00014510","FILE":"3453904","INCLINATION":"53.0549","EPOCH":"2022-05-19T22:47:28.711968","MEAN_ELEMENT_THEORY":"SGP4","SEMIMAJOR_AXIS":"6925.346","MEAN_MOTION":"15.06400911","RCS_SIZE":"LARGE","ELEMENT_SET_NO":"999","CENTER_NAME":"EARTH","TIME_SYSTEM":"UTC","MEAN_MOTION_DOT":"0.00000150","PERIOD":"95.592","MEAN_ANOMALY":"298.3859","EPHEMERIS_TYPE":"0","SITE":"AFETR","NORAD_CAT_ID":"48320","TLE_LINE1":"1 48320U 21036AW  22139.94963787  .00000150  00000-0  28954-4 0  9997","TLE_LINE2":"2 48320  53.0549 220.4106 0001451  61.7276 298.3859 15.06400911 59207","OBJECT_ID":"2021-036AW","REF_FRAME":"TEME","CLASSIFICATION_TYPE":"U","PERIAPSIS":"546.206","RA_OF_ASC_NODE":"220.4106","DECAY_DATE":null,"REV_AT_EPOCH":"5920","OBJECT_NAME":"STARLINK-2029","BSTAR":"0.00002895400000","ARG_OF_PERICENTER":"61.7276"},{"REV_AT_EPOCH":"5908","OBJECT_NAME":"STARLINK-2457","BSTAR":"-0.00004221500000","ARG_OF_PERICENTER":"51.6153","REF_FRAME":"TEME","CLASSIFICATION_TYPE":"U","PERIAPSIS":"546.316","RA_OF_ASC_NODE":"222.5023","DECAY_DATE":null,"EPHEMERIS_TYPE":"0","NORAD_CAT_ID":"48321","SITE":"AFETR","TLE_LINE1":"1 48321U 21036AX  22139.48152078 -.00000910  00000-0 -42215-4 0  9992","TLE_LINE2":"2 48321  53.0532 222.5023 0001328  51.6153 308.4955 15.06392735 59086","OBJECT_ID":"2021-036AX","MEAN_MOTION_DOT":"-0.00000910","PERIOD":"95.593","MEAN_ANOMALY":"308.4955","RCS_SIZE":"LARGE","ELEMENT_SET_NO":"999","CENTER_NAME":"EARTH","TIME_SYSTEM":"UTC","GP_ID":"203952935","ECCENTRICITY":"0.00013280","FILE":"3453261","INCLINATION":"53.0532","EPOCH":"2022-05-19T11:33:23.395392","SEMIMAJOR_AXIS":"6925.371","MEAN_ELEMENT_THEORY":"SGP4","MEAN_MOTION":"15.06392735","LAUNCH_DATE":"2021-04-29","APOAPSIS":"548.156","COUNTRY_CODE":"US","OBJECT_TYPE":"PAYLOAD","MEAN_MOTION_DDOT":"0.0000000000000"},{"MEAN_MOTION_DOT":"0.00000102","MEAN_ANOMALY":"296.1052","PERIOD":"95.592","EPHEMERIS_TYPE":"0","OBJECT_ID":"2021-036AY","NORAD_CAT_ID":"48322","SITE":"AFETR","TLE_LINE1":"1 48322U 21036AY  22139.61053599  .00000102  00000-0  25758-4 0  9990","TLE_LINE2":"2 48322  53.0557 221.9210 0001667  64.0109 296.1052 15.06395013 58510","REF_FRAME":"TEME","PERIAPSIS":"546.074","CLASSIFICATION_TYPE":"U","DECAY_DATE":null,"RA_OF_ASC_NODE":"221.9210","OBJECT_NAME":"STARLINK-2477","REV_AT_EPOCH":"5851","BSTAR":"0.00002575800000","ARG_OF_PERICENTER":"64.0109","OBJECT_TYPE":"PAYLOAD","COUNTRY_CODE":"US","MEAN_MOTION_DDOT":"0.0000000000000","LAUNCH_DATE":"2021-04-29","APOAPSIS":"548.383","GP_ID":"203986636","ECCENTRICITY":"0.00016670","MEAN_ELEMENT_THEORY":"SGP4","SEMIMAJOR_AXIS":"6925.364","MEAN_MOTION":"15.06395013","FILE":"3453812","EPOCH":"2022-05-19T14:39:10.309536","INCLINATION":"53.0557","ELEMENT_SET_NO":"999","RCS_SIZE":"MEDIUM","CENTER_NAME":"EARTH","TIME_SYSTEM":"UTC"},{"LAUNCH_DATE":"2021-04-29","APOAPSIS":"548.339","MEAN_MOTION_DDOT":"0.0000000000000","OBJECT_TYPE":"PAYLOAD","COUNTRY_CODE":"US","TIME_SYSTEM":"UTC","CENTER_NAME":"EARTH","ELEMENT_SET_NO":"999","RCS_SIZE":"LARGE","MEAN_MOTION":"15.06405241","SEMIMAJOR_AXIS":"6925.332","MEAN_ELEMENT_THEORY":"SGP4","EPOCH":"2022-05-19T11:22:46.117632","INCLINATION":"53.0524","FILE":"3453595","ECCENTRICITY":"0.00016480","GP_ID":"203961368","OBJECT_ID":"2021-036AZ","TLE_LINE1":"1 48323U 21036AZ  22139.47414488  .00003414  00000-0  24792-3 0  9998","TLE_LINE2":"2 48323  53.0524 222.5397 0001648  41.7677 318.3437 15.06405241 59081","SITE":"AFETR","NORAD_CAT_ID":"48323","EPHEMERIS_TYPE":"0","MEAN_ANOMALY":"318.3437","PERIOD":"95.592","MEAN_MOTION_DOT":"0.00003414","BSTAR":"0.00024792000000","ARG_OF_PERICENTER":"41.7677","OBJECT_NAME":"STARLINK-2515","REV_AT_EPOCH":"5908","DECAY_DATE":null,"RA_OF_ASC_NODE":"222.5397","CLASSIFICATION_TYPE":"U","PERIAPSIS":"546.056","REF_FRAME":"TEME"},{"ELEMENT_SET_NO":"999","RCS_SIZE":"LARGE","TIME_SYSTEM":"UTC","CENTER_NAME":"EARTH","ECCENTRICITY":"0.00017660","GP_ID":"203988136","MEAN_MOTION":"15.06395969","SEMIMAJOR_AXIS":"6925.361","MEAN_ELEMENT_THEORY":"SGP4","INCLINATION":"53.0540","EPOCH":"2022-05-19T17:39:37.904832","FILE":"3453812","LAUNCH_DATE":"2021-04-29","APOAPSIS":"548.449","OBJECT_TYPE":"PAYLOAD","COUNTRY_CODE":"US","MEAN_MOTION_DDOT":"0.0000000000000","OBJECT_NAME":"STARLINK-2527","REV_AT_EPOCH":"5852","BSTAR":"0.00009279500000","ARG_OF_PERICENTER":"55.6413","CLASSIFICATION_TYPE":"U","PERIAPSIS":"546.003","REF_FRAME":"TEME","DECAY_DATE":null,"RA_OF_ASC_NODE":"221.3610","EPHEMERIS_TYPE":"0","OBJECT_ID":"2021-036BA","TLE_LINE1":"1 48324U 21036BA  22139.73585538  .00001101  00000-0  92795-4 0  9993","TLE_LINE2":"2 48324  53.0540 221.3610 0001766  55.6413 304.4743 15.06395969 58527","NORAD_CAT_ID":"48324","SITE":"AFETR","MEAN_MOTION_DOT":"0.00001101","MEAN_ANOMALY":"304.4743","PERIOD":"95.592"},{"LAUNCH_DATE":"2021-04-29","APOAPSIS":"548.347","MEAN_MOTION_DDOT":"0.0000000000000","COUNTRY_CODE":"US","OBJECT_TYPE":"PAYLOAD","TIME_SYSTEM":"UTC","CENTER_NAME":"EARTH","RCS_SIZE":"LARGE","ELEMENT_SET_NO":"999","EPOCH":"2022-05-19T15:58:46.266528","INCLINATION":"53.0530","FILE":"3453812","MEAN_MOTION":"15.06401580","MEAN_ELEMENT_THEORY":"SGP4","SEMIMAJOR_AXIS":"6925.344","ECCENTRICITY":"0.00016430","GP_ID":"203987887","TLE_LINE2":"2 48325  53.0530 221.6893 0001643  56.2316 303.8830 15.06401580 58523","TLE_LINE1":"1 48325U 21036BB  22139.66581327 -.00001184  00000-0 -60584-4 0  9992","SITE":"AFETR","NORAD_CAT_ID":"48325","OBJECT_ID":"2021-036BB","EPHEMERIS_TYPE":"0","PERIOD":"95.592","MEAN_ANOMALY":"303.8830","MEAN_MOTION_DOT":"-0.00001184","BSTAR":"-0.00006058400000","ARG_OF_PERICENTER":"56.2316","REV_AT_EPOCH":"5852","OBJECT_NAME":"STARLINK-2495","RA_OF_ASC_NODE":"221.6893","DECAY_DATE":null,"PERIAPSIS":"546.071","CLASSIFICATION_TYPE":"U","REF_FRAME":"TEME"},{"REF_FRAME":"TEME","PERIAPSIS":"546.319","CLASSIFICATION_TYPE":"U","DECAY_DATE":null,"RA_OF_ASC_NODE":"221.9931","OBJECT_NAME":"STARLINK-2498","REV_AT_EPOCH":"5851","BSTAR":"-0.00001879700000","ARG_OF_PERICENTER":"87.0167","MEAN_MOTION_DOT":"-0.00000561","MEAN_ANOMALY":"273.0979","PERIOD":"95.593","EPHEMERIS_TYPE":"0","OBJECT_ID":"2021-036BC","NORAD_CAT_ID":"48326","SITE":"AFETR","TLE_LINE1":"1 48326U 21036BC  22139.59580069 -.00000561  00000-0 -18797-4 0  9994","TLE_LINE2":"2 48326  53.0555 221.9931 0001373  87.0167 273.0979 15.06381759 58519","GP_ID":"203987136","ECCENTRICITY":"0.00013730","SEMIMAJOR_AXIS":"6925.404","MEAN_ELEMENT_THEORY":"SGP4","MEAN_MOTION":"15.06381759","FILE":"3453812","EPOCH":"2022-05-19T14:17:57.179616","INCLINATION":"53.0555","ELEMENT_SET_NO":"999","RCS_SIZE":"LARGE","CENTER_NAME":"EARTH","TIME_SYSTEM":"UTC","OBJECT_TYPE":"PAYLOAD","COUNTRY_CODE":"US","MEAN_MOTION_DDOT":"0.0000000000000","LAUNCH_DATE":"2021-04-29","APOAPSIS":"548.220"},{"ELEMENT_SET_NO":"999","RCS_SIZE":"LARGE","CENTER_NAME":"EARTH","TIME_SYSTEM":"UTC","GP_ID":"203950138","ECCENTRICITY":"0.00014320","MEAN_ELEMENT_THEORY":"SGP4","SEMIMAJOR_AXIS":"6925.385","MEAN_MOTION":"15.06388267","FILE":"3453174","INCLINATION":"53.0537","EPOCH":"2022-05-19T12:37:05.186208","APOAPSIS":"548.241","LAUNCH_DATE":"2021-04-29","OBJECT_TYPE":"PAYLOAD","COUNTRY_CODE":"US","MEAN_MOTION_DDOT":"0.0000000000000","OBJECT_NAME":"STARLINK-2502","REV_AT_EPOCH":"5909","BSTAR":"-0.00020974000000","ARG_OF_PERICENTER":"51.3969","REF_FRAME":"TEME","CLASSIFICATION_TYPE":"U","PERIAPSIS":"546.258","DECAY_DATE":null,"RA_OF_ASC_NODE":"222.3029","EPHEMERIS_TYPE":"0","OBJECT_ID":"2021-036BD","SITE":"AFETR","NORAD_CAT_ID":"48327","TLE_LINE2":"2 48327  53.0537 222.3029 0001432  51.3969 308.7148 15.06388267 59092","TLE_LINE1":"1 48327U 21036BD  22139.52575447 -.00003403  00000-0 -20974-3 0  9999","MEAN_MOTION_DOT":"-0.00003403","MEAN_ANOMALY":"308.7148","PERIOD":"95.593"}];
